[
    {
        "Altitude(m)": 556769.4852847874,
        "Argument of Periapsis(deg)": 0.019868973332140504,
        "Eccentricity": 0.0,
        "Inclination(deg)": 53.0,
        "Latitude(deg)": 39.19812537159805,
        "Longitude(deg)": -99.70539981088697,
        "Mean Anomaly(deg)": -307.9070213972673,
        "RAAN(deg)": 324.97043010558406,
        "Satellite Name": "Starlink Shell 1 1431",
        "Satellite Number": 1431,
        "Semi-Major Axis(m)": 6931778.249405717,
        "Time(s)": 570
    },
    {
        "Altitude(m)": 556852.7815511661,
        "Argument of Periapsis(deg)": 0.02021755181165174,
        "Eccentricity": 0.0,
        "Inclination(deg)": 53.0,
        "Latitude(deg)": 39.593792482865226,
        "Longitude(deg)": -99.11765750340437,
        "Mean Anomaly(deg)": -307.2801901937105,
        "RAAN(deg)": 324.96991133550654,
        "Satellite Name": "Starlink Shell 1 1431",
        "Satellite Number": 1431,
        "Semi-Major Axis(m)": 6931778.249405717,
        "Time(s)": 580
    },
    {
        "Altitude(m)": 556935.9005192235,
        "Argument of Periapsis(deg)": 0.020566130291162974,
        "Eccentricity": 0.0,
        "Inclination(deg)": 53.0,
        "Latitude(deg)": 39.985988763581304,
        "Longitude(deg)": -98.5227562763013,
        "Mean Anomaly(deg)": -306.6533589901538,
        "RAAN(deg)": 324.96939256542913,
        "Satellite Name": "Starlink Shell 1 1431",
        "Satellite Number": 1431,
        "Semi-Major Axis(m)": 6931778.249405717,
        "Time(s)": 590
    },
    {
        "Altitude(m)": 557018.7882230909,
        "Argument of Periapsis(deg)": 0.020914708770674213,
        "Eccentricity": 0.0,
        "Inclination(deg)": 53.0,
        "Latitude(deg)": 40.37462690584344,
        "Longitude(deg)": -97.92057828230239,
        "Mean Anomaly(deg)": -306.0265277865971,
        "RAAN(deg)": 324.9688737953516,
        "Satellite Name": "Starlink Shell 1 1431",
        "Satellite Number": 1431,
        "Semi-Major Axis(m)": 6931778.249405717,
        "Time(s)": 600
    },
    {
        "Altitude(m)": 557101.3910249404,
        "Argument of Periapsis(deg)": 0.021263287250185448,
        "Eccentricity": 0.0,
        "Inclination(deg)": 53.0,
        "Latitude(deg)": 40.759617763801245,
        "Longitude(deg)": -97.31100679249673,
        "Mean Anomaly(deg)": -305.39969658304034,
        "RAAN(deg)": 324.96835502527415,
        "Satellite Name": "Starlink Shell 1 1431",
        "Satellite Number": 1431,
        "Semi-Major Axis(m)": 6931778.249405717,
        "Time(s)": 610
    },
    {
        "Altitude(m)": 557183.6556421865,
        "Argument of Periapsis(deg)": 0.021611865729696686,
        "Eccentricity": 0.0,
        "Inclination(deg)": 53.0,
        "Latitude(deg)": 41.14087034252888,
        "Longitude(deg)": -96.69392593935072,
        "Mean Anomaly(deg)": -304.7728653794837,
        "RAAN(deg)": 324.96783625519674,
        "Satellite Name": "Starlink Shell 1 1431",
        "Satellite Number": 1431,
        "Semi-Major Axis(m)": 6931778.249405717,
        "Time(s)": 620
    },
    {
        "Altitude(m)": 557265.5291744568,
        "Argument of Periapsis(deg)": 0.02196044420920792,
        "Eccentricity": 0.0,
        "Inclination(deg)": 53.0,
        "Latitude(deg)": 41.518291790190595,
        "Longitude(deg)": -96.06922215737985,
        "Mean Anomaly(deg)": -304.1460341759269,
        "RAAN(deg)": 324.9673174851192,
        "Satellite Name": "Starlink Shell 1 1431",
        "Satellite Number": 1431,
        "Semi-Major Axis(m)": 6931778.249405717,
        "Time(s)": 630
    },
    {
        "Altitude(m)": 557346.9591303599,
        "Argument of Periapsis(deg)": 0.02230902268871916,
        "Eccentricity": 0.0,
        "Inclination(deg)": 53.0,
        "Latitude(deg)": 41.891787393818454,
        "Longitude(deg)": -95.43678311954511,
        "Mean Anomaly(deg)": -303.51920297237024,
        "RAAN(deg)": 324.9667987150417,
        "Satellite Name": "Starlink Shell 1 1431",
        "Satellite Number": 1431,
        "Semi-Major Axis(m)": 6931778.249405717,
        "Time(s)": 640
    },
    {
        "Altitude(m)": 557427.8934540097,
        "Argument of Periapsis(deg)": 0.022657601168230398,
        "Eccentricity": 0.0,
        "Inclination(deg)": 53.0,
        "Latitude(deg)": 42.26126057903761,
        "Longitude(deg)": -94.79649921272228,
        "Mean Anomaly(deg)": -302.8923717688135,
        "RAAN(deg)": 324.9662799449643,
        "Satellite Name": "Starlink Shell 1 1431",
        "Satellite Number": 1431,
        "Semi-Major Axis(m)": 6931778.249405717,
        "Time(s)": 650
    },
    {
        "Altitude(m)": 557508.2805512667,
        "Argument of Periapsis(deg)": 0.023006179647741636,
        "Eccentricity": 0.0,
        "Inclination(deg)": 53.0,
        "Latitude(deg)": 42.626612914089435,
        "Longitude(deg)": -94.14826335020022,
        "Mean Anomaly(deg)": -302.2655405652568,
        "RAAN(deg)": 324.9657611748868,
        "Satellite Name": "Starlink Shell 1 1431",
        "Satellite Number": 1431,
        "Semi-Major Axis(m)": 6931778.249405717,
        "Time(s)": 660
    },
    {
        "Altitude(m)": 557588.0693157553,
        "Argument of Periapsis(deg)": 0.023354758127252868,
        "Eccentricity": 0.0,
        "Inclination(deg)": 53.0,
        "Latitude(deg)": 42.987744118518194,
        "Longitude(deg)": -93.4919708024886,
        "Mean Anomaly(deg)": -301.6387093617001,
        "RAAN(deg)": 324.9652424048093,
        "Satellite Name": "Starlink Shell 1 1431",
        "Satellite Number": 1431,
        "Semi-Major Axis(m)": 6931778.249405717,
        "Time(s)": 670
    },
    {
        "Altitude(m)": 557667.2091545572,
        "Argument of Periapsis(deg)": 0.023703336606764106,
        "Eccentricity": 0.0,
        "Inclination(deg)": 53.0,
        "Latitude(deg)": 43.34455207690063,
        "Longitude(deg)": -92.8275205595336,
        "Mean Anomaly(deg)": -301.0118781581433,
        "RAAN(deg)": 324.96472363473185,
        "Satellite Name": "Starlink Shell 1 1431",
        "Satellite Number": 1431,
        "Semi-Major Axis(m)": 6931778.249405717,
        "Time(s)": 680
    },
    {
        "Altitude(m)": 557745.6500136774,
        "Argument of Periapsis(deg)": 0.024051915086275345,
        "Eccentricity": 0.0,
        "Inclination(deg)": 53.0,
        "Latitude(deg)": 43.696932858009,
        "Longitude(deg)": -92.15481519873434,
        "Mean Anomaly(deg)": -300.38504695458664,
        "RAAN(deg)": 324.9642048646544,
        "Satellite Name": "Starlink Shell 1 1431",
        "Satellite Number": 1431,
        "Semi-Major Axis(m)": 6931778.249405717,
        "Time(s)": 690
    },
    {
        "Altitude(m)": 557823.3424031346,
        "Argument of Periapsis(deg)": 0.024400493565786583,
        "Eccentricity": 0.0,
        "Inclination(deg)": 53.0,
        "Latitude(deg)": 44.04478073981286,
        "Longitude(deg)": -91.47376077165406,
        "Mean Anomaly(deg)": -299.7582157510299,
        "RAAN(deg)": 324.9636860945769,
        "Satellite Name": "Starlink Shell 1 1431",
        "Satellite Number": 1431,
        "Semi-Major Axis(m)": 6931778.249405717,
        "Time(s)": 700
    },
    {
        "Altitude(m)": 557900.2374218112,
        "Argument of Periapsis(deg)": 0.024749072045297815,
        "Eccentricity": 0.0,
        "Inclination(deg)": 53.0,
        "Latitude(deg)": 44.3879882407302,
        "Longitude(deg)": -90.78426822220237,
        "Mean Anomaly(deg)": -299.1313845474732,
        "RAAN(deg)": 324.96316732449947,
        "Satellite Name": "Starlink Shell 1 1431",
        "Satellite Number": 1431,
        "Semi-Major Axis(m)": 6931778.249405717,
        "Time(s)": 710
    },
    {
        "Altitude(m)": 557976.2867819193,
        "Argument of Periapsis(deg)": 0.025097650524809053,
        "Eccentricity": 0.0,
        "Inclination(deg)": 53.0,
        "Latitude(deg)": 44.726446157550356,
        "Longitude(deg)": -90.08625331030828,
        "Mean Anomaly(deg)": -298.5045533439166,
        "RAAN(deg)": 324.96264855442195,
        "Satellite Name": "Starlink Shell 1 1431",
        "Satellite Number": 1431,
        "Semi-Major Axis(m)": 6931778.249405717,
        "Time(s)": 720
    },
    {
        "Altitude(m)": 558051.4428331747,
        "Argument of Periapsis(deg)": 0.02544622900432029,
        "Eccentricity": 0.0,
        "Inclination(deg)": 53.0,
        "Latitude(deg)": 45.06004361045277,
        "Longitude(deg)": -89.37963655356758,
        "Mean Anomaly(deg)": -297.8777221403598,
        "RAAN(deg)": 324.9621297843445,
        "Satellite Name": "Starlink Shell 1 1431",
        "Satellite Number": 1431,
        "Semi-Major Axis(m)": 6931778.249405717,
        "Time(s)": 730
    },
    {
        "Altitude(m)": 558125.658586608,
        "Argument of Periapsis(deg)": 0.02579480748383153,
        "Eccentricity": 0.0,
        "Inclination(deg)": 53.0,
        "Latitude(deg)": 45.38866809555037,
        "Longitude(deg)": -88.66434469917738,
        "Mean Anomaly(deg)": -297.2508909368031,
        "RAAN(deg)": 324.961611014267,
        "Satellite Name": "Starlink Shell 1 1431",
        "Satellite Number": 1431,
        "Semi-Major Axis(m)": 6931778.249405717,
        "Time(s)": 740
    },
    {
        "Altitude(m)": 558198.8877380193,
        "Argument of Periapsis(deg)": 0.026143385963342765,
        "Eccentricity": 0.0,
        "Inclination(deg)": 53.0,
        "Latitude(deg)": 45.71220554538458,
        "Longitude(deg)": -87.9403106996694,
        "Mean Anomaly(deg)": -296.6240597332463,
        "RAAN(deg)": 324.96109224418956,
        "Satellite Name": "Starlink Shell 1 1431",
        "Satellite Number": 1431,
        "Semi-Major Axis(m)": 6931778.249405717,
        "Time(s)": 750
    }
]